{"type": "FeatureCollection", "features": [ {"type": "Feature", "properties": {"norad_id": 67131, "name": "ZIYUAN 3-04 (ZY 3-04)", "group": "last-30-days", "lat": 65.6377715817153, "lon": 49.466068692295025, "alt_km": 492.8691176127968, "timestamp": "2025-12-18T07:01:53.343758+00:00", "meta": {"OBJECT_NAME": "ZIYUAN 3-04 (ZY 3-04)", "OBJECT_ID": "2025-300A", "EPOCH": "2025-12-16T05:54:33.890112", "MEAN_MOTION": 15.24627585, "ECCENTRICITY": 0.0011082, "INCLINATION": 97.5012, "RA_OF_ASC_NODE": 64.3338, "ARG_OF_PERICENTER": 268.6179, "MEAN_ANOMALY": 91.3789, "EPHEMERIS_TYPE": 0, "CLASSIFICATION_TYPE": "U", "NORAD_CAT_ID": 67131, "ELEMENT_SET_NO": 999, "REV_AT_EPOCH": 2, "BSTAR": 8.3268042e-05, "MEAN_MOTION_DOT": 1.984e-05, "MEAN_MOTION_DDOT": 0}, "tle": {"line1": "1 67131U 25300A   25350.24622558  .00001984  00000+0  83268-4 0  9999", "line2": "2 67131  97.5012  64.3338 0011082 268.6179  91.3789 15.24627585    26"}}, "geometry": {"type": "Point", "coordinates": [49.466068692295025, 65.6377715817153]}}, {"type": "Feature", "properties": {"norad_id": 67132, "name": "CZ-4B R/B", "group": "last-30-days", "lat": 6.354090240705296, "lon": 65.70715544988458, "alt_km": 261.1652124288212, "timestamp": "2025-12-18T07:01:53.343768+00:00", "meta": {"OBJECT_NAME": "CZ-4B R/B", "OBJECT_ID": "2025-300B", "EPOCH": "2025-12-17T15:38:50.646912", "MEAN_MOTION": 15.63708593, "ECCENTRICITY": 0.01750896, "INCLINATION": 97.5588, "RA_OF_ASC_NODE": 65.868, "ARG_OF_PERICENTER": 12.9628, "MEAN_ANOMALY": 347.6044, "EPHEMERIS_TYPE": 0, "CLASSIFICATION_TYPE": "U", "NORAD_CAT_ID": 67132, "ELEMENT_SET_NO": 999, "REV_AT_EPOCH": 24, "BSTAR": 0.00019397917, "MEAN_MOTION_DOT": 0.00040269, "MEAN_MOTION_DDOT": 2.639954e-06}, "tle": {"line1": "1 67132U 25300B   25351.65197508  .00040269  26400-5  19398-3 0  9997", "line2": "2 67132  97.5588  65.8680 0175089  12.9628 347.6044 15.63708593   245"}}, "geometry": {"type": "Point", "coordinates": [65.70715544988458, 6.354090240705296]}}, {"type": "Feature", "properties": {"norad_id": 67160, "name": "GALILEO A", "group": "last-30-days", "lat": 54.22592078775004, "lon": -160.462129935003, "alt_km": 22956.587520298886, "timestamp": "2025-12-18T07:01:53.343779+00:00", "meta": {"OBJECT_NAME": "GALILEO A", "OBJECT_ID": "2025-302A", "EPOCH": "2025-12-17T13:37:30.925056", "MEAN_MOTION": 1.72900439, "ECCENTRICITY": 0.00075221, "INCLINATION": 54.2352, "RA_OF_ASC_NODE": 107.2635, "ARG_OF_PERICENTER": 237.6848, "MEAN_ANOMALY": 122.2012, "EPHEMERIS_TYPE": 0, "CLASSIFICATION_TYPE": "U", "NORAD_CAT_ID": 67160, "ELEMENT_SET_NO": 999, "REV_AT_EPOCH": 1, "BSTAR": 0, "MEAN_MOTION_DOT": -8e-08, "MEAN_MOTION_DDOT": 0}, "tle": {"line1": "1 67160U 25302A   25351.56771904 -.00000008  00000+0  00000+0 0  9994", "line2": "2 67160  54.2352 107.2635 0007522 237.6848 122.2012  1.72900439    17"}}, "geometry": {"type": "Point", "coordinates": [-160.462129935003, 54.22592078775004]}}, {"type": "Feature", "properties": {"norad_id": 67161, "name": "GALILEO B", "group": "last-30-days", "lat": 54.21315170367815, "lon": -160.0492311418665, "alt_km": 22943.97392683829, "timestamp": "2025-12-18T07:01:53.343794+00:00", "meta": {"OBJECT_NAME": "GALILEO B", "OBJECT_ID": "2025-302B", "EPOCH": "2025-12-17T13:37:26.172192", "MEAN_MOTION": 1.72965674, "ECCENTRICITY": 0.00048649, "INCLINATION": 54.2314, "RA_OF_ASC_NODE": 107.2469, "ARG_OF_PERICENTER": 248.2865, "MEAN_ANOMALY": 111.6205, "EPHEMERIS_TYPE": 0, "CLASSIFICATION_TYPE": "U", "NORAD_CAT_ID": 67161, "ELEMENT_SET_NO": 999, "REV_AT_EPOCH": 2, "BSTAR": 0, "MEAN_MOTION_DOT": -8e-08, "MEAN_MOTION_DDOT": 0}, "tle": {"line1": "1 67161U 25302B   25351.56766403 -.00000008  00000+0  00000+0 0  9993", "line2": "2 67161  54.2314 107.2469 0004864 248.2865 111.6205  1.72965674    23"}}, "geometry": {"type": "Point", "coordinates": [-160.0492311418665, 54.21315170367815]}}, {"type": "Feature", "properties": {"norad_id": 67162, "name": "ARIANE 6 R/B", "group": "last-30-days", "lat": 54.192783171687495, "lon": -159.1161066464251, "alt_km": 22911.243613547173, "timestamp": "2025-12-18T07:01:53.343805+00:00", "meta": {"OBJECT_NAME": "ARIANE 6 R/B", "OBJECT_ID": "2025-302C", "EPOCH": "2025-12-17T13:37:22.069920", "MEAN_MOTION": 1.73128011, "ECCENTRICITY": 5.226e-05, "INCLINATION": 54.235, "RA_OF_ASC_NODE": 107.275, "ARG_OF_PERICENTER": 120.9422, "MEAN_ANOMALY": 239.0217, "EPHEMERIS_TYPE": 0, "CLASSIFICATION_TYPE": "U", "NORAD_CAT_ID": 67162, "ELEMENT_SET_NO": 999, "REV_AT_EPOCH": 5, "BSTAR": 0, "MEAN_MOTION_DOT": -8e-08, "MEAN_MOTION_DDOT": 0}, "tle": {"line1": "1 67162U 25302C   25351.56761655 -.00000008  00000+0  00000+0 0  9998", "line2": "2 67162  54.2350 107.2750 0000522 120.9422 239.0217  1.73128011    57"}}, "geometry": {"type": "Point", "coordinates": [-159.1161066464251, 54.192783171687495]}}]}